     2.100          NAVIGATION                              RINEX VERSION / TYPE
fic2rin                                 08/09/2014 00:22:35 PGM / RUN BY / DATE
                                                            END OF HEADER
16 14  8  8 10  0  0.0 -.202734488994D-03  .238742359215D-11  .000000000000D+00
     .590000000000D+02 -.197187500000D+02  .429267880730D-08 -.569227710802D+00
    -.104680657387D-05  .765623594634D-02  .113435089588D-05  .515363515854D+04
     .468000000000D+06  .800937414169D-07  .129278377585D+01 -.130385160446D-07
     .988408806211D+00  .371687500000D+03  .239197984219D+00 -.837534886690D-08
    -.167506977338D-09  .100000000000D+01  .180400000000D+04  .000000000000D+00
     .240000000000D+01  .000000000000D+00 -.102445483208D-07  .590000000000D+02
     .460806000000D+06  .400000000000D+01
17 14  8  8 10  0  0.0 -.114973634481D-03 -.284217094304D-11  .000000000000D+00
     .900000000000D+02 -.147375000000D+03  .406481217289D-08 -.147302805595D+01
    -.763684511185D-05  .938822922762D-02  .926479697227D-05  .515363826752D+04
     .468000000000D+06  .314787030220D-06  .232412743708D+01  .782310962677D-07
     .969490149190D+00  .206781250000D+03 -.209933078709D+01 -.786139888739D-08
    -.322156276245D-09  .100000000000D+01  .180400000000D+04  .000000000000D+00
     .240000000000D+01  .000000000000D+00 -.102445483208D-07  .900000000000D+02
     .460806000000D+06  .400000000000D+01
18 14  8  8 10  0  0.0  .336695462465D-03  .250111042988D-11  .000000000000D+00
     .650000000000D+02  .125000000000D+01  .590631745040D-08  .588208887090D-01
     .484287738800D-07  .154884733493D-01  .499561429024D-05  .515370711327D+04
     .468000000000D+06 -.167638063431D-06 -.191971903911D+01  .188127160072D-06
     .925288573892D+00  .268093750000D+03 -.201740246363D+01 -.900287500588D-08
     .785747015231D-10  .100000000000D+01  .180400000000D+04  .000000000000D+00
     .240000000000D+01  .000000000000D+00 -.107102096081D-07  .650000000000D+02
     .460806000000D+06  .400000000000D+01
20 14  8  8 10  0  0.0  .219644512981D-03  .432009983342D-11  .000000000000D+00
     .830000000000D+02  .734375000000D+01  .582702843341D-08  .566046561791D+00
     .184401869774D-06  .583178806119D-02  .485219061375D-05  .515373934746D+04
     .468000000000D+06 -.726431608200D-07 -.197272727153D+01 -.186264514923D-08
     .926372024187D+00  .266468750000D+03  .132768785283D+01 -.880572393660D-08
     .101789954246D-09  .100000000000D+01  .180400000000D+04  .000000000000D+00
     .240000000000D+01  .000000000000D+00 -.791624188423D-08  .830000000000D+02
     .460806000000D+06  .400000000000D+01
23 14  8  8 10  0  0.0 -.428701750934D-04 -.295585778076D-11  .000000000000D+00
     .120000000000D+02  .128125000000D+02  .465555106525D-08 -.271014894435D+01
     .484287738800D-06  .967121252324D-02  .118613243103D-04  .515375648308D+04
     .468000000000D+06 -.670552253723D-07 -.852097942671D+00 -.219792127609D-06
     .950926804250D+00  .149718750000D+03 -.274448841249D+01 -.787854245863D-08
    -.532522181686D-09  .100000000000D+01  .180400000000D+04  .000000000000D+00
     .240000000000D+01  .000000000000D+00 -.200234353542D-07  .120000000000D+02
     .460806000000D+06  .400000000000D+01
24 14  8  8 10  0  0.0 -.331844203174D-04 -.682121026330D-12  .000000000000D+00
     .800000000000D+01  .131781250000D+03  .454590364085D-08  .284775950528D+01
     .690668821335D-05  .212662667036D-02  .891834497452D-05  .515372120667D+04
     .468000000000D+06 -.316649675369D-07  .174417061925D+00 -.279396772385D-07
     .956564848103D+00  .204000000000D+03  .299157462069D+00 -.800497629654D-08
     .219652006531D-09  .100000000000D+01  .180400000000D+04  .000000000000D+00
     .240000000000D+01  .000000000000D+00  .279396772385D-08  .800000000000D+01
     .460806000000D+06  .400000000000D+01
26 14  8  8 10  0  0.0 -.126482918859D-04 -.129602995003D-10  .000000000000D+00
     .820000000000D+02  .996875000000D+01  .404016828923D-08 -.275610849075D+01
     .327825546265D-06  .212043330539D-01  .120978802443D-04  .515369368553D+04
     .468000000000D+06  .268220901489D-06 -.762103170850D+00 -.633299350739D-07
     .974160468345D+00  .146343750000D+03  .128964230410D+01 -.735602069350D-08
    -.399302346831D-09  .100000000000D+01  .180400000000D+04  .000000000000D+00
     .340000000000D+01  .000000000000D+00 -.605359673500D-08  .820000000000D+02
     .460806000000D+06  .400000000000D+01
27 14  8  8 10  0  0.0  .429293140769D-05  .329691829393D-11  .000000000000D+00
     .100000000000D+03 -.138468750000D+03  .413302930012D-08 -.161992453181D+01
    -.710412859917D-05  .142554403283D-02  .921078026295D-05  .515368477821D+04
     .468000000000D+06 -.484287738800D-07  .227813021030D+01 -.521540641785D-07
     .964234915889D+00  .204812500000D+03  .316958952921D+00 -.793497338063D-08
    -.295369446180D-09  .100000000000D+01  .180400000000D+04  .000000000000D+00
     .240000000000D+01  .000000000000D+00  .186264514923D-08  .100000000000D+03
     .460806000000D+06  .400000000000D+01
28 14  8  8 10  0  0.0  .375623814762D-03  .284217094304D-11  .000000000000D+00
     .560000000000D+02 -.162187500000D+02  .452768859640D-08 -.675489969280D+00
    -.681728124619D-06  .192043664865D-01  .966712832451D-06  .515367269325D+04
     .468000000000D+06 -.249594449997D-06  .129848672645D+01  .152736902237D-06
     .986949103626D+00  .376718750000D+03 -.171080781863D+01 -.878393731482D-08
    -.133934150324D-09  .100000000000D+01  .180400000000D+04  .000000000000D+00
     .240000000000D+01  .000000000000D+00 -.107102096081D-07  .560000000000D+02
     .460806000000D+06  .400000000000D+01
29 14  8  8 10  0  0.0  .552223064005D-03  .261479726760D-11  .000000000000D+00
     .210000000000D+02 -.118875000000D+03  .408231290186D-08  .116332954937D+01
    -.630691647530D-05  .128056167159D-02  .871717929840D-05  .515366935158D+04
     .468000000000D+06  .428408384323D-07  .233324880445D+01  .186264514923D-08
     .970254142065D+00  .216093750000D+03 -.794472294606D+00 -.791354391658D-08
    -.247153152064D-09  .100000000000D+01  .180400000000D+04  .000000000000D+00
     .240000000000D+01  .000000000000D+00 -.977888703346D-08  .210000000000D+02
     .460806000000D+06  .400000000000D+01
30 14  8  8 10  0  0.0 -.453176908195D-04 -.568434188608D-11  .000000000000D+00
     .950000000000D+02  .149343750000D+03  .462412118464D-08  .202171782912D+01
     .784359872341D-05  .964255072176D-03  .814720988274D-05  .515368235588D+04
     .468000000000D+06  .912696123123D-07  .263698885008D+00  .372529029846D-07
     .958827966279D+00  .221843750000D+03  .296929221322D+01 -.826141554969D-08
     .292869342041D-09  .100000000000D+01  .180400000000D+04  .000000000000D+00
     .240000000000D+01  .000000000000D+00  .325962901115D-08  .950000000000D+02
     .460806000000D+06  .400000000000D+01
31 14  8  8 10  0  0.0  .332897063345D-03 -.341060513165D-12  .000000000000D+00
     .580000000000D+02  .132562500000D+03  .413160066918D-08  .195256786102D+01
     .707991421223D-05  .798078370281D-02  .783242285252D-05  .515360303307D+04
     .468000000000D+06  .126659870148D-06  .216740044139D+00  .707805156708D-07
     .978166249648D+00  .234156250000D+03 -.633209476059D+00 -.785604152138D-08
     .814319633967D-10  .100000000000D+01  .180400000000D+04  .000000000000D+00
     .240000000000D+01  .000000000000D+00 -.130385160446D-07  .580000000000D+02
     .460806000000D+06  .400000000000D+01
32 14  8  8 10  0  0.0 -.367540400475D-03  .841282599140D-11  .000000000000D+00
     .101000000000D+03 -.500000000000D+01  .523771817199D-08  .252970178677D+01
    -.260770320892D-06  .114018552704D-01  .523589551449D-05  .515367067909D+04
     .468000000000D+06 -.175088644028D-06 -.182397993074D+01  .189989805222D-06
     .947151416453D+00  .268812500000D+03 -.117969680265D+00 -.831748931396D-08
    -.542879755978D-10  .100000000000D+01  .180400000000D+04  .000000000000D+00
     .240000000000D+01  .000000000000D+00 -.325962901115D-08  .101000000000D+03
     .460806000000D+06  .400000000000D+01
 1 14  8  8 12  0  0.0  .192387960851D-04  .682121026330D-12  .000000000000D+00
     .810000000000D+02  .528125000000D+01  .427232081645D-08 -.263637220817D+01
     .299885869026D-06  .335422356147D-02  .112857669592D-04  .515367857552D+04
     .475200000000D+06  .931322574615D-08 -.294999368904D+01  .838190317154D-07
     .961568083525D+00  .163062500000D+03  .364525766453D+00 -.780461080765D-08
     .667527805212D-09  .100000000000D+01  .180400000000D+04  .000000000000D+00
     .240000000000D+01  .000000000000D+00  .558793544769D-08  .810000000000D+02
     .468006000000D+06  .400000000000D+01
 2 14  8  8 12  0  0.0  .511382706463D-03  .216004991671D-11  .000000000000D+00
     .250000000000D+02 -.771875000000D+01  .467698052930D-08 -.196511502119D+01
    -.361353158951D-06  .136832576245D-01  .113639980555D-04  .515365590858D+04
     .475200000000D+06  .147148966789D-06 -.298118414409D+01 -.176951289177D-06
     .940126902230D+00  .149437500000D+03 -.239982090169D+01 -.782175437889D-08
     .713601152924D-09  .100000000000D+01  .180400000000D+04  .000000000000D+00
     .240000000000D+01  .000000000000D+00 -.200234353542D-07  .250000000000D+02
     .468006000000D+06  .400000000000D+01
 3 14  8  8 12  0  0.0  .401190482080D-03  .500222085975D-11  .000000000000D+00
     .310000000000D+02 -.124687500000D+03  .486805991709D-08 -.194791177460D+01
    -.634416937828D-05  .173313579289D-01  .666640698910D-05  .515382205200D+04
     .475200000000D+06  .312924385071D-06  .212691002008D+01  .143423676491D-06
     .939125024247D+00  .234562500000D+03  .141331716007D+01 -.812640992616D-08
    -.345014371233D-09  .100000000000D+01  .180400000000D+04  .000000000000D+00
     .340000000000D+01  .630000000000D+02 -.465661287308D-08  .310000000000D+02
     .468006000000D+06  .400000000000D+01
